{"type": "FeatureCollection", "features": [ {"type": "Feature", "properties": {"norad_id": 30242, "name": "FENGYUN 1C DEB", "group": "fengyun-1c-debris", "lat": -58.938843968866394, "lon": -160.47475526340574, "alt_km": 845.7947202988553, "timestamp": "2025-12-26T08:37:54.855209+00:00", "meta": {"OBJECT_NAME": "FENGYUN 1C DEB", "OBJECT_ID": "1999-025XB", "EPOCH": "2025-12-25T01:18:32.993856", "MEAN_MOTION": 14.1766643, "ECCENTRICITY": 0.00105064, "INCLINATION": 98.6825, "RA_OF_ASC_NODE": 32.9463, "ARG_OF_PERICENTER": 19.9167, "MEAN_ANOMALY": 43.1258, "EPHEMERIS_TYPE": 0, "CLASSIFICATION_TYPE": "U", "NORAD_CAT_ID": 30242, "ELEMENT_SET_NO": 999, "REV_AT_EPOCH": 97601, "BSTAR": 0.00055962945, "MEAN_MOTION_DOT": 1.096e-05, "MEAN_MOTION_DDOT": 0}, "tle": {"line1": "1 30242U 99025XB  25359.05454854  .00001096  00000+0  55963-3 0  9991", "line2": "2 30242  98.6825  32.9463 0010506  19.9167  43.1258 14.17666430976017"}}, "geometry": {"type": "Point", "coordinates": [-160.47475526340574, -58.938843968866394]}}, {"type": "Feature", "properties": {"norad_id": 30243, "name": "FENGYUN 1C DEB", "group": "fengyun-1c-debris", "lat": 78.50708535902619, "lon": -119.81558542741703, "alt_km": 832.3981996550274, "timestamp": "2025-12-26T08:37:54.855228+00:00", "meta": {"OBJECT_NAME": "FENGYUN 1C DEB", "OBJECT_ID": "1999-025XC", "EPOCH": "2025-12-25T23:55:54.359616", "MEAN_MOTION": 14.13040573, "ECCENTRICITY": 0.0013188, "INCLINATION": 98.6926, "RA_OF_ASC_NODE": 11.0314, "ARG_OF_PERICENTER": 84.2591, "MEAN_ANOMALY": 330.2163, "EPHEMERIS_TYPE": 0, "CLASSIFICATION_TYPE": "U", "NORAD_CAT_ID": 30243, "ELEMENT_SET_NO": 999, "REV_AT_EPOCH": 97466, "BSTAR": 0.00036518901, "MEAN_MOTION_DOT": 6.39e-06, "MEAN_MOTION_DDOT": 0}, "tle": {"line1": "1 30243U 99025XC  25359.99715694  .00000639  00000+0  36519-3 0  9995", "line2": "2 30243  98.6926  11.0314 0013188  84.2591 330.2163 14.13040573974662"}}, "geometry": {"type": "Point", "coordinates": [-119.81558542741703, 78.50708535902619]}}, {"type": "Feature", "properties": {"norad_id": 30244, "name": "FENGYUN 1C DEB", "group": "fengyun-1c-debris", "lat": 30.208721246693056, "lon": -115.03508824601074, "alt_km": 843.3835643194589, "timestamp": "2025-12-26T08:37:54.855245+00:00", "meta": {"OBJECT_NAME": "FENGYUN 1C DEB", "OBJECT_ID": "1999-025XD", "EPOCH": "2025-12-25T15:46:11.310240", "MEAN_MOTION": 14.15034684, "ECCENTRICITY": 0.0009049, "INCLINATION": 99.1432, "RA_OF_ASC_NODE": 249.6256, "ARG_OF_PERICENTER": 276.9651, "MEAN_ANOMALY": 136.5888, "EPHEMERIS_TYPE": 0, "CLASSIFICATION_TYPE": "U", "NORAD_CAT_ID": 30244, "ELEMENT_SET_NO": 999, "REV_AT_EPOCH": 97529, "BSTAR": 0.00038683, "MEAN_MOTION_DOT": 7.03e-06, "MEAN_MOTION_DDOT": 0}, "tle": {"line1": "1 30244U 99025XD  25359.65707535  .00000703  00000+0  38683-3 0  9990", "line2": "2 30244  99.1432 249.6256 0009049 276.9651 136.5888 14.15034684975292"}}, "geometry": {"type": "Point", "coordinates": [-115.03508824601074, 30.208721246693056]}}, {"type": "Feature", "properties": {"norad_id": 30245, "name": "FENGYUN 1C DEB", "group": "fengyun-1c-debris", "lat": -30.215668580888362, "lon": 161.89720479942272, "alt_km": 831.57987687488, "timestamp": "2025-12-26T08:37:54.855261+00:00", "meta": {"OBJECT_NAME": "FENGYUN 1C DEB", "OBJECT_ID": "1999-025XE", "EPOCH": "2025-12-25T22:54:04.445568", "MEAN_MOTION": 13.79097702, "ECCENTRICITY": 0.0192858, "INCLINATION": 98.8901, "RA_OF_ASC_NODE": 346.7464, "ARG_OF_PERICENTER": 215.5047, "MEAN_ANOMALY": 143.3145, "EPHEMERIS_TYPE": 0, "CLASSIFICATION_TYPE": "U", "NORAD_CAT_ID": 30245, "ELEMENT_SET_NO": 999, "REV_AT_EPOCH": 94876, "BSTAR": 0.00089433276, "MEAN_MOTION_DOT": 1.01e-05, "MEAN_MOTION_DDOT": 0}, "tle": {"line1": "1 30245U 99025XE  25359.95421812  .00001010  00000+0  89433-3 0  9996", "line2": "2 30245  98.8901 346.7464 0192858 215.5047 143.3145 13.79097702948762"}}, "geometry": {"type": "Point", "coordinates": [161.89720479942272, -30.215668580888362]}}, {"type": "Feature", "properties": {"norad_id": 30246, "name": "FENGYUN 1C DEB", "group": "fengyun-1c-debris", "lat": 46.3134863177296, "lon": 132.85202149402815, "alt_km": 851.6953007588072, "timestamp": "2025-12-26T08:37:54.855279+00:00", "meta": {"OBJECT_NAME": "FENGYUN 1C DEB", "OBJECT_ID": "1999-025XF", "EPOCH": "2025-12-25T22:12:45.739296", "MEAN_MOTION": 13.37024308, "ECCENTRICITY": 0.03704497, "INCLINATION": 98.6738, "RA_OF_ASC_NODE": 141.677, "ARG_OF_PERICENTER": 66.6309, "MEAN_ANOMALY": 53.2465, "EPHEMERIS_TYPE": 0, "CLASSIFICATION_TYPE": "U", "NORAD_CAT_ID": 30246, "ELEMENT_SET_NO": 999, "REV_AT_EPOCH": 92316, "BSTAR": 0.00028782487, "MEAN_MOTION_DOT": 1.9e-06, "MEAN_MOTION_DDOT": 0}, "tle": {"line1": "1 30246U 99025XF  25359.92552939  .00000190  00000+0  28782-3 0  9997", "line2": "2 30246  98.6738 141.6770 0370449  66.6309  53.2465 13.37024308923168"}}, "geometry": {"type": "Point", "coordinates": [132.85202149402815, 46.3134863177296]}}, {"type": "Feature", "properties": {"norad_id": 30247, "name": "FENGYUN 1C DEB", "group": "fengyun-1c-debris", "lat": -10.85662139267337, "lon": -90.91197537647133, "alt_km": 592.6572287937988, "timestamp": "2025-12-26T08:37:54.855296+00:00", "meta": {"OBJECT_NAME": "FENGYUN 1C DEB", "OBJECT_ID": "1999-025XG", "EPOCH": "2025-12-24T23:50:19.937184", "MEAN_MOTION": 14.59646948, "ECCENTRICITY": 0.01916191, "INCLINATION": 98.2764, "RA_OF_ASC_NODE": 266.1244, "ARG_OF_PERICENTER": 314.0258, "MEAN_ANOMALY": 57.9158, "EPHEMERIS_TYPE": 0, "CLASSIFICATION_TYPE": "U", "NORAD_CAT_ID": 30247, "ELEMENT_SET_NO": 999, "REV_AT_EPOCH": 97461, "BSTAR": 0.0035005142, "MEAN_MOTION_DOT": 0.00021568, "MEAN_MOTION_DDOT": 0}, "tle": {"line1": "1 30247U 99025XG  25358.99328631  .00021568  00000+0  35005-2 0  9991", "line2": "2 30247  98.2764 266.1244 0191619 314.0258  57.9158 14.59646948974617"}}, "geometry": {"type": "Point", "coordinates": [-90.91197537647133, -10.85662139267337]}}, {"type": "Feature", "properties": {"norad_id": 30248, "name": "FENGYUN 1C DEB", "group": "fengyun-1c-debris", "lat": 21.32228798856131, "lon": -177.7964091028989, "alt_km": 692.8342282679223, "timestamp": "2025-12-26T08:37:54.855307+00:00", "meta": {"OBJECT_NAME": "FENGYUN 1C DEB", "OBJECT_ID": "1999-025XH", "EPOCH": "2025-12-25T11:08:43.486080", "MEAN_MOTION": 14.59607506, "ECCENTRICITY": 0.0027967, "INCLINATION": 99.1008, "RA_OF_ASC_NODE": 184.8096, "ARG_OF_PERICENTER": 110.7609, "MEAN_ANOMALY": 249.6588, "EPHEMERIS_TYPE": 0, "CLASSIFICATION_TYPE": "U", "NORAD_CAT_ID": 30248, "ELEMENT_SET_NO": 999, "REV_AT_EPOCH": 97614, "BSTAR": 0.0040535, "MEAN_MOTION_DOT": 0.00019388, "MEAN_MOTION_DDOT": 0}, "tle": {"line1": "1 30248U 99025XH  25359.46439220  .00019388  00000+0  40535-2 0  9993", "line2": "2 30248  99.1008 184.8096 0027967 110.7609 249.6588 14.59607506976149"}}, "geometry": {"type": "Point", "coordinates": [-177.7964091028989, 21.32228798856131]}}, {"type": "Feature", "properties": {"norad_id": 30249, "name": "FENGYUN 1C DEB", "group": "fengyun-1c-debris", "lat": 13.482141321390591, "lon": 163.65029826616237, "alt_km": 682.0576269385165, "timestamp": "2025-12-26T08:37:54.855317+00:00", "meta": {"OBJECT_NAME": "FENGYUN 1C DEB", "OBJECT_ID": "1999-025XJ", "EPOCH": "2025-12-25T06:47:28.177728", "MEAN_MOTION": 14.58018718, "ECCENTRICITY": 0.0026984, "INCLINATION": 98.9593, "RA_OF_ASC_NODE": 164.659, "ARG_OF_PERICENTER": 2.0594, "MEAN_ANOMALY": 123.3896, "EPHEMERIS_TYPE": 0, "CLASSIFICATION_TYPE": "U", "NORAD_CAT_ID": 30249, "ELEMENT_SET_NO": 999, "REV_AT_EPOCH": 97746, "BSTAR": 0.0035177, "MEAN_MOTION_DOT": 0.00016231, "MEAN_MOTION_DDOT": 0}, "tle": {"line1": "1 30249U 99025XJ  25359.28296502  .00016231  00000+0  35177-2 0  9998", "line2": "2 30249  98.9593 164.6590 0026984   2.0594 123.3896 14.58018718977461"}}, "geometry": {"type": "Point", "coordinates": [163.65029826616237, 13.482141321390591]}}, {"type": "Feature", "properties": {"norad_id": 30250, "name": "FENGYUN 1C DEB", "group": "fengyun-1c-debris", "lat": -39.031542211986306, "lon": 164.57981561588076, "alt_km": 853.4850941856575, "timestamp": "2025-12-26T08:37:54.855327+00:00", "meta": {"OBJECT_NAME": "FENGYUN 1C DEB", "OBJECT_ID": "1999-025XK", "EPOCH": "2025-12-25T23:06:55.981152", "MEAN_MOTION": 14.01637643, "ECCENTRICITY": 0.00684877, "INCLINATION": 98.7547, "RA_OF_ASC_NODE": 351.3757, "ARG_OF_PERICENTER": 185.9191, "MEAN_ANOMALY": 193.4567, "EPHEMERIS_TYPE": 0, "CLASSIFICATION_TYPE": "U", "NORAD_CAT_ID": 30250, "ELEMENT_SET_NO": 999, "REV_AT_EPOCH": 96677, "BSTAR": 0.00021259061, "MEAN_MOTION_DOT": 2.87e-06, "MEAN_MOTION_DDOT": 0}, "tle": {"line1": "1 30250U 99025XK  25359.96314793  .00000287  00000+0  21259-3 0  9999", "line2": "2 30250  98.7547 351.3757 0068487 185.9191 193.4567 14.01637643966775"}}, "geometry": {"type": "Point", "coordinates": [164.57981561588076, -39.031542211986306]}}, {"type": "Feature", "properties": {"norad_id": 30251, "name": "FENGYUN 1C DEB", "group": "fengyun-1c-debris", "lat": -19.60961859966957, "lon": 15.946137348566863, "alt_km": 799.3926314476585, "timestamp": "2025-12-26T08:37:54.855337+00:00", "meta": {"OBJECT_NAME": "FENGYUN 1C DEB", "OBJECT_ID": "1999-025XL", "EPOCH": "2025-12-25T13:30:20.965824", "MEAN_MOTION": 14.29334664, "ECCENTRICITY": 0.0051381, "INCLINATION": 99.0487, "RA_OF_ASC_NODE": 198.3738, "ARG_OF_PERICENTER": 292.915, "MEAN_ANOMALY": 129.0952, "EPHEMERIS_TYPE": 0, "CLASSIFICATION_TYPE": "U", "NORAD_CAT_ID": 30251, "ELEMENT_SET_NO": 999, "REV_AT_EPOCH": 98325, "BSTAR": 0.00049146, "MEAN_MOTION_DOT": 1.221e-05, "MEAN_MOTION_DDOT": 0}, "tle": {"line1": "1 30251U 99025XL  25359.56274266  .00001221  00000+0  49146-3 0  9990", "line2": "2 30251  99.0487 198.3738 0051381 292.9150 129.0952 14.29334664983252"}}, "geometry": {"type": "Point", "coordinates": [15.946137348566863, -19.60961859966957]}}]}